STARLINK-30460          
1 57870U 23144G   26161.18943692  .00000310  00000+0  20793-4 0  9997
2 57870  43.0011 122.8490 0001110 272.4950  87.5774 15.27577253151791
STARLINK-30444          
1 57871U 23144H   26161.19712609  .00017311  00000+0  63624-3 0  9999
2 57871  43.0056 122.9046 0000458  99.2951 260.7952 15.27626094151509
STARLINK-30446          
1 57872U 23144J   26161.14901288  .00002059  00000+0  84289-4 0  9992
2 57872  43.0018 108.9138 0000867 271.2996  88.7756 15.27588339151676
STARLINK-30445          
1 57873U 23144K   26161.19329396  .00000467  00000+0  26512-4 0  9998
2 57873  43.0053 122.8842 0001037 262.1952  97.8782 15.27575503151741
STARLINK-30447          
1 57874U 23144L   26160.56175506  .00001326  00000+0  57675-4 0  9990
2 57874  43.0022 100.6107 0000929 262.6446  97.4301 15.27587670151985
STARLINK-30434          
1 57875U 23144M   26161.20486394  .00001626  00000+0  68595-4 0  9999
2 57875  43.0026 122.9655 0000930 238.5946 121.4815 15.27583410151799
STARLINK-30429          
1 57876U 23144N   26160.62024978  .00003282  00000+0  12877-3 0  9992
2 57876  43.0033 126.3211 0001062 274.3155  85.7575 15.27573325151699
STARLINK-30284          
1 57877U 23144P   26160.52466275 -.00000294  00000+0 -11426-5 0  9995
2 57877  43.0130  89.9238 0001530 261.5616  98.5062 15.27586710152103
STARLINK-30433          
1 57878U 23144Q   26161.15988330  .00000638  00000+0  32691-4 0  9993
2 57878  43.0010 122.6280 0000950 258.4509 101.6236 15.27578963151787
STARLINK-30358          
1 57879U 23144R   26161.16373635  .00000661  00000+0  33543-4 0  9994
2 57879  43.0043 122.6565 0001522 262.5594  97.5085 15.27579262151784
STARLINK-30436          
1 57880U 23144S   26161.17016091  .00000537  00000+0  29032-4 0  9997
2 57880  42.9981 122.6993 0001167 251.8364 108.2361 15.27578700151784
STARLINK-30339          
1 57882U 23144U   26160.62922300  .00000325  00000+0  21332-4 0  9997
2 57882  43.0030 126.3756 0001939 256.7231 103.3404 15.27577466151697
STARLINK-30282          
1 57883U 23144V   26161.15731083  .00000722  00000+0  35773-4 0  9998
2 57883  43.0030 122.6087 0001657 262.7245  97.3419 15.27579814151780
STARLINK-30340          
1 57884U 23144W   26161.16501586 -.00000314  00000+0 -18614-5 0  9998
2 57884  43.0126 122.6608 0001623 281.4221  78.6448 15.27584766151787
STARLINK-30279          
1 57885U 23144X   26161.16119398 -.00002790  00000+0 -91953-4 0  9991
2 57885  43.0071 122.6386 0002437 281.7858  78.2720 15.27552257151726
YAOGAN-39 02A           
1 57886U 23145A   26160.92260299  .00008563  00000+0  35481-3 0  9998
2 57886  35.0023 246.1301 0003303 249.6369 110.3991 15.23166625152069
YAOGAN-39 02B           
1 57889U 23145D   26161.24550734  .00005486  00000+0  26654-3 0  9996
2 57889  34.9906 267.5135 0003839 340.6523  19.4044 15.17812066151832
YAOGAN-39 02C           
1 57890U 23145E   26161.24885332  .00005185  00000+0  25226-3 0  9993
2 57890  34.9938 267.6264 0005996 348.5333  11.5243 15.17771838151807
STARLINK-30465          
1 57891U 23146A   26161.25244231 -.00001094  00000+0 -30232-4 0  9994
2 57891  43.0041 151.3671 0001177 268.7533  91.3184 15.27569924151214
STARLINK-30470          
1 57892U 23146B   26161.23830296  .00000627  00000+0  32286-4 0  9995
2 57892  42.9953 151.2524 0000799 210.5188 149.5617 15.27579040151218
STARLINK-30473          
1 57893U 23146C   26161.27170461  .00000660  00000+0  33502-4 0  9990
2 57893  43.0060 151.4486 0000618 256.9744 103.1038 15.27581381151215
STARLINK-30443          
1 57894U 23146D   26161.25372517  .00000602  00000+0  31383-4 0  9996
2 57894  43.0053 151.3716 0001178 272.5475  87.5242 15.27579736151213
STARLINK-30467          
1 57895U 23146E   26161.24215995 -.00001632  00000+0 -49790-4 0  9999
2 57895  43.0022 151.2881 0001391 273.4219  86.6473 15.27585062151209
STARLINK-30469          
1 57896U 23146F   26161.25758746  .00001580  00000+0  66927-4 0  9998
2 57896  43.0032 151.3987 0001062 257.1046 102.9688 15.27584689151216
STARLINK-30474          
1 57897U 23146G   26160.67169206  .00004769  00000+0  18281-3 0  9992
2 57897  42.9986 154.7450 0001102 261.2982  98.7745 15.27563400151129
STARLINK-30479          
1 57898U 23146H   26161.26400804 -.00001539  00000+0 -46420-4 0  9992
2 57898  43.0013 151.4426 0001773 275.8878  84.1772 15.27566422151215
STARLINK-30481          
1 57899U 23146J   26161.26785949  .00000102  00000+0  13248-4 0  9994
2 57899  42.9996 151.4774 0001340 268.8515  91.2183 15.27578079151216
STARLINK-30457          
1 57900U 23146K   26160.69737017 -.00000337  00000+0 -27221-5 0  9995
2 57900  43.0008 154.9230 0001242 251.4156 108.6561 15.27574917150062
STARLINK-30472          
1 57901U 23146L   26161.24779983  .00006342  00000+0  23972-3 0  9993
2 57901  43.0007 147.9117 0001185 287.2720  72.8002 15.27589655150199
STARLINK-30462          
1 57902U 23146M   26161.27556980  .00001206  00000+0  53343-4 0  9997
2 57902  43.0095 151.5359 0001021 262.1701  97.9035 15.27581328151178
STARLINK-30449          
1 57903U 23146N   26161.24730324  .00001273  00000+0  55788-4 0  9990
2 57903  43.0036 151.3164 0001944 277.1747  82.8884 15.27574596150157
STARLINK-30466          
1 57904U 23146P   26161.27942657 -.00000410  00000+0 -53607-5 0  9991
2 57904  43.0026 151.5640 0001135 273.9667  86.1055 15.27577084150157
STARLINK-30428          
1 57906U 23146R   26161.28199305  .00000725  00000+0  35882-4 0  9999
2 57906  43.0033 151.5761 0001174 272.6693  87.4024 15.27580025150158
STARLINK-30482          
1 57907U 23146S   26160.70508393 -.00000659  00000+0 -14444-4 0  9996
2 57907  43.0050 154.9914 0000793 273.9317  86.1444 15.27574948150078
STARLINK-30464          
1 57908U 23146T   26161.29049488 -.00000298  00000+0 -12881-5 0  9990
2 57908  43.0023 155.0368 0001266 271.8399  88.2308 15.27576636150110
STARLINK-30463          
1 57909U 23146U   26160.71279202  .00000409  00000+0  24391-4 0  9996
2 57909  43.0028 155.0427 0001618 274.3775  85.6892 15.27578012150062
STARLINK-30453          
1 57910U 23146V   26160.69659012 -.00000080  00000+0  66179-5 0  9993
2 57910  43.0033 151.5245 0001235 280.0796  79.9916 15.27572677150100
STARLINK-30478          
1 57911U 23146W   26161.24472578  .00000446  00000+0  25723-4 0  9990
2 57911  42.9953 151.2897 0001249 246.9261 113.1459 15.27578322151212
STARLINK-30477          
1 57912U 23146X   26161.24393846 -.00000118  00000+0  52231-5 0  9993
2 57912  43.0001 147.8865 0001568 270.5116  89.5556 15.27577258151256
STARLINK-30450          
1 57913U 23147A   26161.29209125  .00000485  00000+0  27149-4 0  9991
2 57913  43.0011 161.9607 0001148 259.5694 100.5029 15.27580306150763
STARLINK-30483          
1 57914U 23147B   26160.91408521  .00000625  00000+0  32207-4 0  9998
2 57914  43.0118  18.7932 0000097 325.9062  34.1783 15.27582374152411
STARLINK-30454          
1 57915U 23147C   26161.29979950  .00000580  00000+0  30585-4 0  9997
2 57915  42.9999 162.0158 0001235 272.9377  87.1333 15.27579408150764
STARLINK-30501          
1 57917U 23147E   26161.30237111  .00013820  00000+0  51054-3 0  9991
2 57917  42.9989 162.0324 0000700 255.4755 104.6019 15.27596461150788
STARLINK-30499          
1 57918U 23147F   26161.28855439  .00000804  00000+0  38743-4 0  9997
2 57918  43.0059  17.2723 0001243 256.3700 103.7013 15.27583621152494
STARLINK-30496          
1 57919U 23147G   26160.72546909  .00001782  00000+0  74325-4 0  9997
2 57919  43.0036 165.4437 0001103 270.7329  89.3396 15.27559481150702
STARLINK-30485          
1 57920U 23147H   26160.72931171  .00001673  00000+0  70309-4 0  9995
2 57920  43.0028 165.4772 0001460 267.4717  92.5967 15.27579262150706
STARLINK-30492          
1 57921U 23147J   26160.73572389  .00007453  00000+0  27980-3 0  9997
2 57921  43.0060 165.5216 0002695 274.4448  85.6096 15.27612498150678
STARLINK-30440          
1 57923U 23147L   26161.27810248  .00000478  00000+0  26879-4 0  9995
2 57923  43.0025 162.7026 0001364 274.5904  85.4792 15.27578589150784
STARLINK-30487          
1 57924U 23147M   26160.73909671  .00001463  00000+0  62685-4 0  9995
2 57924  43.0039 168.9291 0001131 278.6749  81.3974 15.27578426150660
STARLINK-30452          
1 57925U 23147N   26161.28067021 -.00001530  00000+0 -46080-4 0  9999
2 57925  43.0046 162.7247 0001772 269.7926  90.2722 15.27568063150757
STARLINK-30468          
1 57926U 23147P   26161.30316250  .00000834  00000+0  39819-4 0  9990
2 57926  43.0009 165.4471 0000945 269.1067  90.9676 15.27588124150729
STARLINK-30448          
1 57928U 23147R   26161.31729591  .00000365  00000+0  22774-4 0  9990
2 57928  43.0053 165.5463 0001069 270.7977  89.2752 15.27578323150724
STARLINK-30476          
1 57930U 23147T   26161.33335648  .00129903  00000+0  72602-3 0  9995
2 57930  42.9913  88.3739 0015190 311.6982 227.8952 15.78060724  5761
STARLINK-30488          
1 57931U 23147U   26161.32116819 -.00001444  00000+0 -42996-4 0  9997
2 57931  43.0035 165.5710 0001314 279.9261  80.1443 15.27563386150756
STARLINK-30471          
1 57932U 23147V   26161.28823518  .00000434  00000+0  25305-4 0  9995
2 57932  43.0016 161.9242 0001170 270.5838  89.4880 15.27579177150766
STARLINK-30461          
1 57933U 23147W   26161.28438427  .00000400  00000+0  24065-4 0  9992
2 57933  43.0017 161.8971 0001302 271.2117  88.8586 15.27577985150762
STARLINK-30712          
1 57935U 23148A   26160.71292512  .00002691  00000+0  90759-4 0  9992
2 57935  53.1611 316.0005 0000714  89.7816 270.3269 15.34394181152527
STARLINK-30716          
1 57936U 23148B   26161.13945656  .00000629  00000+0  33375-4 0  9994
2 57936  53.1624 315.0113 0001218  89.2406 270.8734 15.30189915152571
STARLINK-30400          
1 57937U 23148C   26161.13740951  .00003831  00000+0  12449-3 0  9992
2 57937  53.1630 314.3370 0001751  75.9564 284.1633 15.34393501152584
